{"fetched_at":"2026-03-29T16:36:15Z","count":15609,"tles":[{"name":"STARLINK-3304","line1":"1 50161U 21125F   26087.65014472 -.00001047  00000+0 -47707-4 0  9998","line2":"2 50161  53.2164 174.0012 0001384  95.0772 265.0378 15.08842357239319","category":"Starlink"}]}