{
  "norad_id": 50161,
  "name": "STARLINK-3304",
  "history": [
    {
      "epoch": "2026-03-28T15:36:12.503808",
      "apogee_km": 540.6936182161589,
      "perigee_km": 538.778750918671,
      "latitude_deg": -46.463812677206214,
      "longitude_deg": -21.486106879776344,
      "semi_major_axis_km": 6917.873184567415,
      "eccentricity": 0.0001384,
      "inclination_deg": 53.2164,
      "raan_deg": 174.0012,
      "arg_perigee_deg": 95.0772,
      "mean_anomaly_deg": 265.0378,
      "mean_motion_rev_day": 15.08842357
    }
  ]
}